CTC2_L_00599007-03
1 77018U 24941BX  26070.40851852  .00000000  00000+0  00000-0 0  9990
2 77018  70.0000 180.0000 0000000   0.0000 144.0000  6.30405269    16
CTC2_L_00599007-04
1 77019U 22209JE  26070.40851852  .00000000  00000+0  00000-0 0  9996
2 77019  70.0000 180.0000 0000000   0.0000 180.0000  6.30405269    17
CTC2_L_00599007-05
1 77020U 24691F   26070.40851852  .00000000  00000+0  00000-0 0  9995
2 77020  70.0000 180.0000 0000000   0.0000 216.0000  6.30405269    19
CTC2_L_00599007-06
1 77021U 23725AI  26070.40851852  .00000000  00000+0  00000-0 0  9993
2 77021  70.0000 180.0000 0000000   0.0000 252.0000  6.30405269    10
CTC2_L_00599007-07
1 77022U 26084BC  26070.40851852  .00000000  00000+0  00000-0 0  9995
2 77022  70.0000 180.0000 0000000   0.0000 288.0000  6.30405269    10
CTC2_L_00599007-08
1 77023U 22742WD  26070.40851852  .00000000  00000+0  00000-0 0  9993
2 77023  70.0000 180.0000 0000000   0.0000 324.0000  6.30405269    12
CTC2_L_00599007-09
1 77024U 23976YJ  26070.40851852  .00000000  00000+0  00000-0 0  9994
2 77024  70.0000 180.0000 0000000   0.0000   0.0000  6.30405269    14
CTC2_L_00599007-10
1 77025U 23053OD  26070.40851852  .00000000  00000+0  00000-0 0  9991
2 77025  70.0000 180.0000 0000000   0.0000  36.0000  6.30405269    14
CTC2_L_00599008-01
1 77026U 26939Y   26070.40851852  .00000000  00000+0  00000-0 0  9998
2 77026  70.0000 210.0000 0000000   0.0000  84.0000  6.30405269    12
CTC2_L_00599008-02
1 77027U 22861ZM  26070.40851852  .00000000  00000+0  00000-0 0  9999
2 77027  70.0000 210.0000 0000000   0.0000 120.0000  6.30405269    14
CTC2_L_00599008-03
1 77028U 22441XV  26070.40851852  .00000000  00000+0  00000-0 0  9994
2 77028  70.0000 210.0000 0000000   0.0000 156.0000  6.30405269    14
CTC2_L_00599008-04
1 77029U 23438WH  26070.40851852  .00000000  00000+0  00000-0 0  9992
2 77029  70.0000 210.0000 0000000   0.0000 192.0000  6.30405269    15
CTC2_L_00599008-05
1 77030U 23968AA  26070.40851852  .00000000  00000+0  00000-0 0  9992
2 77030  70.0000 210.0000 0000000   0.0000 228.0000  6.30405269    17
CTC2_L_00599008-06
1 77031U 23633AL  26070.40851852  .00000000  00000+0  00000-0 0  9992
2 77031  70.0000 210.0000 0000000   0.0000 264.0000  6.30405269    18
CTC2_L_00599008-07
1 77032U 22290ME  26070.40851852  .00000000  00000+0  00000-0 0  9991
2 77032  70.0000 210.0000 0000000   0.0000 300.0000  6.30405269    10
CTC2_L_00599008-08
1 77033U 23141TH  26070.40851852  .00000000  00000+0  00000-0 0  9998
2 77033  70.0000 210.0000 0000000   0.0000 336.0000  6.30405269    10
CTC2_L_00599008-09
1 77034U 22425BC  26070.40851852  .00000000  00000+0  00000-0 0  9993
2 77034  70.0000 210.0000 0000000   0.0000  12.0000  6.30405269    12
CTC2_L_00599008-10
1 77035U 22750RS  26070.40851852  .00000000  00000+0  00000-0 0  9995
2 77035  70.0000 210.0000 0000000   0.0000  48.0000  6.30405269    12
CTC2_L_00599009-01
1 77036U 24877UJ  26070.40851852  .00000000  00000+0  00000-0 0  9998
2 77036  70.0000 240.0000 0000000   0.0000  96.0000  6.30405269    19
CTC2_L_00599009-02
1 77037U 24169UH  26070.40851852  .00000000  00000+0  00000-0 0  9993
2 77037  70.0000 240.0000 0000000   0.0000 132.0000  6.30405269    11
CTC2_L_00599009-03
1 77038U 22825NC  26070.40851852  .00000000  00000+0  00000-0 0  9991
2 77038  70.0000 240.0000 0000000   0.0000 168.0000  6.30405269    11
CTC2_L_00599009-04
1 77039U 23781KT  26070.40851852  .00000000  00000+0  00000-0 0  9994
2 77039  70.0000 240.0000 0000000   0.0000 204.0000  6.30405269    13
CTC2_L_00599009-05
1 77040U 26993IK  26070.40851852  .00000000  00000+0  00000-0 0  9994
2 77040  70.0000 240.0000 0000000   0.0000 240.0000  6.30405269    15
CTC2_L_00599009-06
1 77041U 23183GM  26070.40851852  .00000000  00000+0  00000-0 0  9993
2 77041  70.0000 240.0000 0000000   0.0000 276.0000  6.30405269    15
CTC2_L_00599009-07
1 77042U 26594QE  26070.40851852  .00000000  00000+0  00000-0 0  9993
2 77042  70.0000 240.0000 0000000   0.0000 312.0000  6.30405269    17
CTC2_L_00599009-08
1 77043U 26267TI  26070.40851852  .00000000  00000+0  00000-0 0  9991
2 77043  70.0000 240.0000 0000000   0.0000 348.0000  6.30405269    17
CTC2_L_00599009-09
1 77044U 22167JJ  26070.40851852  .00000000  00000+0  00000-0 0  9997
2 77044  70.0000 240.0000 0000000   0.0000  24.0000  6.30405269    19
CTC2_L_00599009-10
1 77045U 26737PC  26070.40851852  .00000000  00000+0  00000-0 0  9995
2 77045  70.0000 240.0000 0000000   0.0000  60.0000  6.30405269    10
CTC2_L_00599010-01
1 77046U 23011UV  26070.40851852  .00000000  00000+0  00000-0 0  9998
2 77046  70.0000 270.0000 0000000   0.0000 108.0000  6.30405269    17
CTC2_L_00599010-02
1 77047U 24967TK  26070.40851852  .00000000  00000+0  00000-0 0  9990
2 77047  70.0000 270.0000 0000000   0.0000 144.0000  6.30405269    18
CTC2_L_00599010-03
1 77048U 23447NE  26070.40851852  .00000000  00000+0  00000-0 0  9993
2 77048  70.0000 270.0000 0000000   0.0000 180.0000  6.30405269    19
CTC2_L_00599010-04
1 77049U 25888YQ  26070.40851852  .00000000  00000+0  00000-0 0  9995
2 77049  70.0000 270.0000 0000000   0.0000 216.0000  6.30405269    10
CTC2_L_00599010-05
1 77050U 22739PA  26070.40851852  .00000000  00000+0  00000-0 0  9999
2 77050  70.0000 270.0000 0000000   0.0000 252.0000  6.30405269    12
CTC2_L_00599010-06
1 77051U 26792NO  26070.40851852  .00000000  00000+0  00000-0 0  9993
2 77051  70.0000 270.0000 0000000   0.0000 288.0000  6.30405269    12
CTC2_L_00599010-07
1 77052U 25734XI  26070.40851852  .00000000  00000+0  00000-0 0  9999
2 77052  70.0000 270.0000 0000000   0.0000 324.0000  6.30405269    14
CTC2_L_00599010-08
1 77053U 24031NF  26070.40851852  .00000000  00000+0  00000-0 0  9999
2 77053  70.0000 270.0000 0000000   0.0000   0.0000  6.30405269    16
CTC2_L_00599010-09
1 77054U 23345EW  26070.40851852  .00000000  00000+0  00000-0 0  9997
2 77054  70.0000 270.0000 0000000   0.0000  36.0000  6.30405269    16
CTC2_L_00599010-10
1 77055U 24229CC  26070.40851852  .00000000  00000+0  00000-0 0  9990
2 77055  70.0000 270.0000 0000000   0.0000  72.0000  6.30405269    17
CTC2_L_00599011-01
1 77056U 24204QR  26070.40851852  .00000000  00000+0  00000-0 0  9994
2 77056  70.0000 300.0000 0000000   0.0000 120.0000  6.30405269    16
CTC2_L_00599011-02
1 77057U 23511SZ  26070.40851852  .00000000  00000+0  00000-0 0  9995
2 77057  70.0000 300.0000 0000000   0.0000 156.0000  6.30405269    16
CTC2_L_00599011-03
1 77058U 22945BK  26070.40851852  .00000000  00000+0  00000-0 0  9996
2 77058  70.0000 300.0000 0000000   0.0000 192.0000  6.30405269    17
CTC2_L_00599011-04
1 77059U 24986CF  26070.40851852  .00000000  00000+0  00000-0 0  9994
2 77059  70.0000 300.0000 0000000   0.0000 228.0000  6.30405269    18
CTC2_L_00599011-05
1 77060U 26113VD  26070.40851852  .00000000  00000+0  00000-0 0  9990
2 77060  70.0000 300.0000 0000000   0.0000 264.0000  6.30405269    10
CTC2_L_00599011-06
1 77061U 26811VH  26070.40851852  .00000000  00000+0  00000-0 0  9996
2 77061  70.0000 300.0000 0000000   0.0000 300.0000  6.30405269    12
CTC2_L_00599011-07
1 77062U 25685FY  26070.40851852  .00000000  00000+0  00000-0 0  9995
2 77062  70.0000 300.0000 0000000   0.0000 336.0000  6.30405269    12
CTC2_L_00599011-08
1 77063U 24700TY  26070.40851852  .00000000  00000+0  00000-0 0  9993
2 77063  70.0000 300.0000 0000000   0.0000  12.0000  6.30405269    14
CTC2_L_00599011-09
1 77064U 26625HB  26070.40851852  .00000000  00000+0  00000-0 0  9992
2 77064  70.0000 300.0000 0000000   0.0000  48.0000  6.30405269    14
CTC2_L_00599011-10
1 77065U 26145QK  26070.40851852  .00000000  00000+0  00000-0 0  9990
2 77065  70.0000 300.0000 0000000   0.0000  84.0000  6.30405269    15
CTC2_L_00599012-01
1 77066U 26572CE  26070.40851852  .00000000  00000+0  00000-0 0  9995
2 77066  70.0000 330.0000 0000000   0.0000 132.0000  6.30405269    13
CTC2_L_00599012-02
1 77067U 24101NM  26070.40851852  .00000000  00000+0  00000-0 0  9992
2 77067  70.0000 330.0000 0000000   0.0000 168.0000  6.30405269    13
CTC2_L_00599012-03
1 77068U 23435ON  26070.40851852  .00000000  00000+0  00000-0 0  9992
2 77068  70.0000 330.0000 0000000   0.0000 204.0000  6.30405269    15
CTC2_L_00599012-04
1 77069U 23143ZL  26070.40851852  .00000000  00000+0  00000-0 0  9999
2 77069  70.0000 330.0000 0000000   0.0000 240.0000  6.30405269    16
CTC2_L_00599012-05
1 77070U 26591BO  26070.40851852  .00000000  00000+0  00000-0 0  9991
2 77070  70.0000 330.0000 0000000   0.0000 276.0000  6.30405269    17
CTC2_L_00599012-06
1 77071U 23939IP  26070.40851852  .00000000  00000+0  00000-0 0  9995
2 77071  70.0000 330.0000 0000000   0.0000 312.0000  6.30405269    19
CTC2_L_00599012-07
1 77072U 26979XK  26070.40851852  .00000000  00000+0  00000-0 0  9993
2 77072  70.0000 330.0000 0000000   0.0000 348.0000  6.30405269    19
CTC2_L_00599012-08
1 77073U 22965LD  26070.40851852  .00000000  00000+0  00000-0 0  9995
2 77073  70.0000 330.0000 0000000   0.0000  24.0000  6.30405269    11
CTC2_L_00599012-09
1 77074U 24477AK  26070.40851852  .00000000  00000+0  00000-0 0  9996
2 77074  70.0000 330.0000 0000000   0.0000  60.0000  6.30405269    12
CTC2_L_00599012-10
1 77075U 23552QF  26070.40851852  .00000000  00000+0  00000-0 0  9990
2 77075  70.0000 330.0000 0000000   0.0000  96.0000  6.30405269    12
